{"type": "FeatureCollection", "features": [ {"type": "Feature", "properties": {"norad_id": 30224, "name": "FENGYUN 1C DEB", "group": "fengyun-1c-debris", "lat": 16.052544777890958, "lon": 30.284963375928438, "alt_km": 880.2598812199258, "timestamp": "2025-12-20T03:42:47.667914+00:00", "meta": {"OBJECT_NAME": "FENGYUN 1C DEB", "OBJECT_ID": "1999-025WH", "EPOCH": "2025-12-19T01:51:34.081056", "MEAN_MOTION": 13.89872102, "ECCENTRICITY": 0.01110113, "INCLINATION": 99.4832, "RA_OF_ASC_NODE": 31.9442, "ARG_OF_PERICENTER": 326.2417, "MEAN_ANOMALY": 62.0015, "EPHEMERIS_TYPE": 0, "CLASSIFICATION_TYPE": "U", "NORAD_CAT_ID": 30224, "ELEMENT_SET_NO": 999, "REV_AT_EPOCH": 95829, "BSTAR": 0.00030669921, "MEAN_MOTION_DOT": 3.49e-06, "MEAN_MOTION_DDOT": 0}, "tle": {"line1": "1 30224U 99025WH  25353.07747779  .00000349  00000+0  30670-3 0  9996", "line2": "2 30224  99.4832  31.9442 0111011 326.2417  62.0015 13.89872102958299"}}, "geometry": {"type": "Point", "coordinates": [30.284963375928438, 16.052544777890958]}}, {"type": "Feature", "properties": {"norad_id": 30225, "name": "FENGYUN 1C DEB", "group": "fengyun-1c-debris", "lat": 39.17526819088479, "lon": -152.1566021993267, "alt_km": 819.5705763849901, "timestamp": "2025-12-20T03:42:47.667924+00:00", "meta": {"OBJECT_NAME": "FENGYUN 1C DEB", "OBJECT_ID": "1999-025WJ", "EPOCH": "2025-12-19T00:15:57.318048", "MEAN_MOTION": 14.15188349, "ECCENTRICITY": 0.010038, "INCLINATION": 98.6591, "RA_OF_ASC_NODE": 19.6, "ARG_OF_PERICENTER": 68.1666, "MEAN_ANOMALY": 7.7254, "EPHEMERIS_TYPE": 0, "CLASSIFICATION_TYPE": "U", "NORAD_CAT_ID": 30225, "ELEMENT_SET_NO": 999, "REV_AT_EPOCH": 97625, "BSTAR": 0.00014005753, "MEAN_MOTION_DOT": 2.44e-06, "MEAN_MOTION_DDOT": 0}, "tle": {"line1": "1 30225U 99025WJ  25353.01108007  .00000244  00000+0  14006-3 0  9995", "line2": "2 30225  98.6591  19.6000 0100380  68.1666   7.7254 14.15188349976251"}}, "geometry": {"type": "Point", "coordinates": [-152.1566021993267, 39.17526819088479]}}, {"type": "Feature", "properties": {"norad_id": 30229, "name": "FENGYUN 1C DEB", "group": "fengyun-1c-debris", "lat": 30.55029264567878, "lon": -120.11642030713632, "alt_km": 706.6066238491285, "timestamp": "2025-12-20T03:42:47.667935+00:00", "meta": {"OBJECT_NAME": "FENGYUN 1C DEB", "OBJECT_ID": "1999-025WN", "EPOCH": "2025-12-19T02:38:43.428768", "MEAN_MOTION": 14.606479, "ECCENTRICITY": 0.00371156, "INCLINATION": 99.0624, "RA_OF_ASC_NODE": 53.3362, "ARG_OF_PERICENTER": 20.9441, "MEAN_ANOMALY": 38.5189, "EPHEMERIS_TYPE": 0, "CLASSIFICATION_TYPE": "U", "NORAD_CAT_ID": 30229, "ELEMENT_SET_NO": 999, "REV_AT_EPOCH": 99019, "BSTAR": 0.0013115529, "MEAN_MOTION_DOT": 6.394e-05, "MEAN_MOTION_DDOT": 0}, "tle": {"line1": "1 30229U 99025WN  25353.11022487  .00006394  00000+0  13116-2 0  9999", "line2": "2 30229  99.0624  53.3362 0037115  20.9441  38.5189 14.60647900990196"}}, "geometry": {"type": "Point", "coordinates": [-120.11642030713632, 30.55029264567878]}}, {"type": "Feature", "properties": {"norad_id": 30231, "name": "FENGYUN 1C DEB", "group": "fengyun-1c-debris", "lat": 29.467076353688782, "lon": -136.19955933033242, "alt_km": 924.5565866775014, "timestamp": "2025-12-20T03:42:47.667945+00:00", "meta": {"OBJECT_NAME": "FENGYUN 1C DEB", "OBJECT_ID": "1999-025WQ", "EPOCH": "2025-12-19T01:35:19.135680", "MEAN_MOTION": 14.11658356, "ECCENTRICITY": 0.01281271, "INCLINATION": 98.8047, "RA_OF_ASC_NODE": 37.7082, "ARG_OF_PERICENTER": 11.3282, "MEAN_ANOMALY": 9.0379, "EPHEMERIS_TYPE": 0, "CLASSIFICATION_TYPE": "U", "NORAD_CAT_ID": 30231, "ELEMENT_SET_NO": 999, "REV_AT_EPOCH": 97109, "BSTAR": 0.00048509925, "MEAN_MOTION_DOT": 9.1e-06, "MEAN_MOTION_DDOT": 0}, "tle": {"line1": "1 30231U 99025WQ  25353.06619370  .00000910  00000+0  48510-3 0  9994", "line2": "2 30231  98.8047  37.7082 0128127  11.3282   9.0379 14.11658356971096"}}, "geometry": {"type": "Point", "coordinates": [-136.19955933033242, 29.467076353688782]}}, {"type": "Feature", "properties": {"norad_id": 30232, "name": "FENGYUN 1C DEB", "group": "fengyun-1c-debris", "lat": 36.04859525512091, "lon": -171.67219126770004, "alt_km": 644.6724956505377, "timestamp": "2025-12-20T03:42:47.667955+00:00", "meta": {"OBJECT_NAME": "FENGYUN 1C DEB", "OBJECT_ID": "1999-025WR", "EPOCH": "2025-12-19T11:25:49.186272", "MEAN_MOTION": 14.63641185, "ECCENTRICITY": 0.0135582, "INCLINATION": 98.6929, "RA_OF_ASC_NODE": 194.006, "ARG_OF_PERICENTER": 328.96, "MEAN_ANOMALY": 93.4565, "EPHEMERIS_TYPE": 0, "CLASSIFICATION_TYPE": "U", "NORAD_CAT_ID": 30232, "ELEMENT_SET_NO": 999, "REV_AT_EPOCH": 99850, "BSTAR": 0.00053321, "MEAN_MOTION_DOT": 3.106e-05, "MEAN_MOTION_DDOT": 0}, "tle": {"line1": "1 30232U 99025WR  25353.47626373  .00003106  00000+0  53321-3 0  9997", "line2": "2 30232  98.6929 194.0060 0135582 328.9600  93.4565 14.63641185998509"}}, "geometry": {"type": "Point", "coordinates": [-171.67219126770004, 36.04859525512091]}}, {"type": "Feature", "properties": {"norad_id": 30234, "name": "FENGYUN 1C DEB", "group": "fengyun-1c-debris", "lat": 47.45611690292366, "lon": -165.7561682105236, "alt_km": 821.0442752519939, "timestamp": "2025-12-20T03:42:47.667965+00:00", "meta": {"OBJECT_NAME": "FENGYUN 1C DEB", "OBJECT_ID": "1999-025WT", "EPOCH": "2025-12-19T12:33:13.940928", "MEAN_MOTION": 14.16873428, "ECCENTRICITY": 0.0066876, "INCLINATION": 98.6335, "RA_OF_ASC_NODE": 4.1017, "ARG_OF_PERICENTER": 55.9352, "MEAN_ANOMALY": 95.0446, "EPHEMERIS_TYPE": 0, "CLASSIFICATION_TYPE": "U", "NORAD_CAT_ID": 30234, "ELEMENT_SET_NO": 999, "REV_AT_EPOCH": 97552, "BSTAR": 0.00026973, "MEAN_MOTION_DOT": 5.1e-06, "MEAN_MOTION_DDOT": 0}, "tle": {"line1": "1 30234U 99025WT  25353.52307802  .00000510  00000+0  26973-3 0  9997", "line2": "2 30234  98.6335   4.1017 0066876  55.9352  95.0446 14.16873428975523"}}, "geometry": {"type": "Point", "coordinates": [-165.7561682105236, 47.45611690292366]}}, {"type": "Feature", "properties": {"norad_id": 30235, "name": "FENGYUN 1C DEB", "group": "fengyun-1c-debris", "lat": -56.09353755991618, "lon": 178.8621670776797, "alt_km": 765.4972365388812, "timestamp": "2025-12-20T03:42:47.667975+00:00", "meta": {"OBJECT_NAME": "FENGYUN 1C DEB", "OBJECT_ID": "1999-025WU", "EPOCH": "2025-12-19T01:19:01.479072", "MEAN_MOTION": 14.08786829, "ECCENTRICITY": 0.01536105, "INCLINATION": 98.749, "RA_OF_ASC_NODE": 11.0392, "ARG_OF_PERICENTER": 220.6137, "MEAN_ANOMALY": 200.9665, "EPHEMERIS_TYPE": 0, "CLASSIFICATION_TYPE": "U", "NORAD_CAT_ID": 30235, "ELEMENT_SET_NO": 999, "REV_AT_EPOCH": 96982, "BSTAR": 0.00030750431, "MEAN_MOTION_DOT": 5.48e-06, "MEAN_MOTION_DDOT": 0}, "tle": {"line1": "1 30235U 99025WU  25353.05487823  .00000548  00000+0  30750-3 0  9997", "line2": "2 30235  98.7490  11.0392 0153610 220.6137 200.9665 14.08786829969820"}}, "geometry": {"type": "Point", "coordinates": [178.8621670776797, -56.09353755991618]}}, {"type": "Feature", "properties": {"norad_id": 30237, "name": "FENGYUN 1C DEB", "group": "fengyun-1c-debris", "lat": -51.91919474514756, "lon": 108.57858158922936, "alt_km": 752.7535536335508, "timestamp": "2025-12-20T03:42:47.667985+00:00", "meta": {"OBJECT_NAME": "FENGYUN 1C DEB", "OBJECT_ID": "1999-025WW", "EPOCH": "2025-12-19T06:32:47.632992", "MEAN_MOTION": 14.40977673, "ECCENTRICITY": 0.0014538, "INCLINATION": 98.8258, "RA_OF_ASC_NODE": 96.2318, "ARG_OF_PERICENTER": 284.9236, "MEAN_ANOMALY": 129.7771, "EPHEMERIS_TYPE": 0, "CLASSIFICATION_TYPE": "U", "NORAD_CAT_ID": 30237, "ELEMENT_SET_NO": 999, "REV_AT_EPOCH": 97792, "BSTAR": 0.0016744, "MEAN_MOTION_DOT": 5.343e-05, "MEAN_MOTION_DDOT": 0}, "tle": {"line1": "1 30237U 99025WW  25353.27277353  .00005343  00000+0  16744-2 0  9992", "line2": "2 30237  98.8258  96.2318 0014538 284.9236 129.7771 14.40977673977927"}}, "geometry": {"type": "Point", "coordinates": [108.57858158922936, -51.91919474514756]}}, {"type": "Feature", "properties": {"norad_id": 30239, "name": "FENGYUN 1C DEB", "group": "fengyun-1c-debris", "lat": -1.521820548680286, "lon": 140.43336398064875, "alt_km": 891.0110244181451, "timestamp": "2025-12-20T03:42:47.667996+00:00", "meta": {"OBJECT_NAME": "FENGYUN 1C DEB", "OBJECT_ID": "1999-025WY", "EPOCH": "2025-12-19T08:44:12.820992", "MEAN_MOTION": 11.38208236, "ECCENTRICITY": 0.1349959, "INCLINATION": 99.5686, "RA_OF_ASC_NODE": 139.6476, "ARG_OF_PERICENTER": 18.6079, "MEAN_ANOMALY": 345.9749, "EPHEMERIS_TYPE": 0, "CLASSIFICATION_TYPE": "U", "NORAD_CAT_ID": 30239, "ELEMENT_SET_NO": 999, "REV_AT_EPOCH": 54610, "BSTAR": 0.019428, "MEAN_MOTION_DOT": 6.544e-05, "MEAN_MOTION_DDOT": 0}, "tle": {"line1": "1 30239U 99025WY  25353.36403728  .00006544  00000+0  19428-1 0  9996", "line2": "2 30239  99.5686 139.6476 1349959  18.6079 345.9749 11.38208236546100"}}, "geometry": {"type": "Point", "coordinates": [140.43336398064875, -1.521820548680286]}}, {"type": "Feature", "properties": {"norad_id": 30241, "name": "FENGYUN 1C DEB", "group": "fengyun-1c-debris", "lat": 57.38951804151889, "lon": -38.254831281865485, "alt_km": 802.4865665889438, "timestamp": "2025-12-20T03:42:47.668006+00:00", "meta": {"OBJECT_NAME": "FENGYUN 1C DEB", "OBJECT_ID": "1999-025XA", "EPOCH": "2025-12-19T08:32:12.568128", "MEAN_MOTION": 14.09553531, "ECCENTRICITY": 0.0146677, "INCLINATION": 99.1488, "RA_OF_ASC_NODE": 126.3445, "ARG_OF_PERICENTER": 62.719, "MEAN_ANOMALY": 324.9053, "EPHEMERIS_TYPE": 0, "CLASSIFICATION_TYPE": "U", "NORAD_CAT_ID": 30241, "ELEMENT_SET_NO": 999, "REV_AT_EPOCH": 97005, "BSTAR": 0.00016452, "MEAN_MOTION_DOT": 2.73e-06, "MEAN_MOTION_DDOT": 0}, "tle": {"line1": "1 30241U 99025XA  25353.35570102  .00000273  00000+0  16452-3 0  9998", "line2": "2 30241  99.1488 126.3445 0146677  62.7190 324.9053 14.09553531970055"}}, "geometry": {"type": "Point", "coordinates": [-38.254831281865485, 57.38951804151889]}}]}